{
  "type": "FeatureCollection",
  "features": [
    {
      "type": "Feature",
      "properties": {
        "norad_id": 37960,
        "name": "COSMOS 2251 DEB",
        "group": "cosmos-2251-debris",
        "lat": 72.79183245790311,
        "lon": -58.93430327770679,
        "alt_km": 919.4498721615901,
        "timestamp": "2025-12-11T20:41:15.478801+00:00",
        "meta_object_name": "COSMOS 2251 DEB",
        "meta_object_id": "1993-036BPK",
        "meta_epoch": "2025-12-11T06:34:06.593952",
        "meta_mean_motion": 14.07849479,
        "meta_eccentricity": 0.0248856,
        "meta_inclination": 74.0568,
        "meta_ra_of_asc_node": 189.4616,
        "meta_arg_of_pericenter": 208.4906,
        "meta_mean_anomaly": 150.2444,
        "meta_ephemeris_type": 0,
        "meta_classification_type": "U",
        "meta_norad_cat_id": 37960,
        "meta_element_set_no": 999,
        "meta_rev_at_epoch": 77385,
        "meta_bstar": 0.0011921558,
        "meta_mean_motion_dot": 2.659e-05,
        "meta_mean_motion_ddot": 0,
        "tle_line1": "1 37960U 93036BPK 25345.27368743  .00002659  00000+0  11922-2 0  9993",
        "tle_line2": "2 37960  74.0568 189.4616 0248856 208.4906 150.2444 14.07849479773857"
      },
      "geometry": {
        "type": "Point",
        "coordinates": [
          -58.93430327770679,
          72.79183245790311
        ]
      }
    },
    {
      "type": "Feature",
      "properties": {
        "norad_id": 37961,
        "name": "COSMOS 2251 DEB",
        "group": "cosmos-2251-debris",
        "lat": 32.73438642152597,
        "lon": -51.8237937288966,
        "alt_km": 689.4312306288157,
        "timestamp": "2025-12-11T20:41:15.478811+00:00",
        "meta_object_name": "COSMOS 2251 DEB",
        "meta_object_id": "1993-036BPL",
        "meta_epoch": "2025-12-11T10:08:14.598816",
        "meta_mean_motion": 14.5795188,
        "meta_eccentricity": 0.00408006,
        "meta_inclination": 74.0412,
        "meta_ra_of_asc_node": 139.6117,
        "meta_arg_of_pericenter": 220.729,
        "meta_mean_anomaly": 139.0823,
        "meta_ephemeris_type": 0,
        "meta_classification_type": "U",
        "meta_norad_cat_id": 37961,
        "meta_element_set_no": 999,
        "meta_rev_at_epoch": 80046,
        "meta_bstar": 0.0020723036,
        "meta_mean_motion_dot": 9.604e-05,
        "meta_mean_motion_ddot": 0,
        "tle_line1": "1 37961U 93036BPL 25345.42239119  .00009604  00000+0  20723-2 0  9991",
        "tle_line2": "2 37961  74.0412 139.6117 0040800 220.7290 139.0823 14.57951880800460"
      },
      "geometry": {
        "type": "Point",
        "coordinates": [
          -51.8237937288966,
          32.73438642152597
        ]
      }
    },
    {
      "type": "Feature",
      "properties": {
        "norad_id": 37966,
        "name": "COSMOS 2251 DEB",
        "group": "cosmos-2251-debris",
        "lat": 68.73683336352066,
        "lon": -80.02210762199344,
        "alt_km": 516.455761979897,
        "timestamp": "2025-12-11T20:41:15.478821+00:00",
        "meta_object_name": "COSMOS 2251 DEB",
        "meta_object_id": "1993-036BPR",
        "meta_epoch": "2025-12-09T09:36:29.677536",
        "meta_mean_motion": 15.12084932,
        "meta_eccentricity": 0.0008975,
        "meta_inclination": 73.977,
        "meta_ra_of_asc_node": 237.4896,
        "meta_arg_of_pericenter": 112.4769,
        "meta_mean_anomaly": 247.7375,
        "meta_ephemeris_type": 0,
        "meta_classification_type": "U",
        "meta_norad_cat_id": 37966,
        "meta_element_set_no": 999,
        "meta_rev_at_epoch": 85292,
        "meta_bstar": 0.003976161,
        "meta_mean_motion_dot": 0.00069139,
        "meta_mean_motion_ddot": 0,
        "tle_line1": "1 37966U 93036BPR 25343.40034349  .00069139  00000+0  39762-2 0  9992",
        "tle_line2": "2 37966  73.9770 237.4896 0008975 112.4769 247.7375 15.12084932852920"
      },
      "geometry": {
        "type": "Point",
        "coordinates": [
          -80.02210762199344,
          68.73683336352066
        ]
      }
    },
    {
      "type": "Feature",
      "properties": {
        "norad_id": 37967,
        "name": "COSMOS 2251 DEB",
        "group": "cosmos-2251-debris",
        "lat": -26.326663257643833,
        "lon": 130.85606700755062,
        "alt_km": 698.8674130086847,
        "timestamp": "2025-12-11T20:41:15.478831+00:00",
        "meta_object_name": "COSMOS 2251 DEB",
        "meta_object_id": "1993-036BPS",
        "meta_epoch": "2025-12-10T16:28:42.146688",
        "meta_mean_motion": 14.4047963,
        "meta_eccentricity": 0.01508864,
        "meta_inclination": 74.015,
        "meta_ra_of_asc_node": 141.1866,
        "meta_arg_of_pericenter": 280.4085,
        "meta_mean_anomaly": 78.0095,
        "meta_ephemeris_type": 0,
        "meta_classification_type": "U",
        "meta_norad_cat_id": 37967,
        "meta_element_set_no": 999,
        "meta_rev_at_epoch": 64706,
        "meta_bstar": 0.0023977147,
        "meta_mean_motion_dot": 8.707e-05,
        "meta_mean_motion_ddot": 0,
        "tle_line1": "1 37967U 93036BPS 25344.68659892  .00008707  00000+0  23977-2 0  9995",
        "tle_line2": "2 37967  74.0150 141.1866 0150886 280.4085  78.0095 14.40479630647063"
      },
      "geometry": {
        "type": "Point",
        "coordinates": [
          130.85606700755062,
          -26.326663257643833
        ]
      }
    },
    {
      "type": "Feature",
      "properties": {
        "norad_id": 37968,
        "name": "COSMOS 2251 DEB",
        "group": "cosmos-2251-debris",
        "lat": -63.09633746039412,
        "lon": -121.48870944534815,
        "alt_km": 578.2615717292429,
        "timestamp": "2025-12-11T20:41:15.478842+00:00",
        "meta_object_name": "COSMOS 2251 DEB",
        "meta_object_id": "1993-036BPT",
        "meta_epoch": "2025-12-11T12:59:17.342016",
        "meta_mean_motion": 15.00564337,
        "meta_eccentricity": 0.00805117,
        "meta_inclination": 74.0003,
        "meta_ra_of_asc_node": 273.6016,
        "meta_arg_of_pericenter": 29.6371,
        "meta_mean_anomaly": 330.9341,
        "meta_ephemeris_type": 0,
        "meta_classification_type": "U",
        "meta_norad_cat_id": 37968,
        "meta_element_set_no": 999,
        "meta_rev_at_epoch": 60201,
        "meta_bstar": 0.0016377655,
        "meta_mean_motion_dot": 0.00022176,
        "meta_mean_motion_ddot": 0,
        "tle_line1": "1 37968U 93036BPT 25345.54117294  .00022176  00000+0  16378-2 0  9990",
        "tle_line2": "2 37968  74.0003 273.6016 0080511  29.6371 330.9341 15.00564337602013"
      },
      "geometry": {
        "type": "Point",
        "coordinates": [
          -121.48870944534815,
          -63.09633746039412
        ]
      }
    },
    {
      "type": "Feature",
      "properties": {
        "norad_id": 37971,
        "name": "COSMOS 2251 DEB",
        "group": "cosmos-2251-debris",
        "lat": 13.897704698876323,
        "lon": 47.46257117067755,
        "alt_km": 777.6288673229674,
        "timestamp": "2025-12-11T20:41:15.478852+00:00",
        "meta_object_name": "COSMOS 2251 DEB",
        "meta_object_id": "1993-036BPW",
        "meta_epoch": "2025-12-11T10:40:32.065248",
        "meta_mean_motion": 14.48615122,
        "meta_eccentricity": 0.00674117,
        "meta_inclination": 73.9935,
        "meta_ra_of_asc_node": 44.173,
        "meta_arg_of_pericenter": 183.4136,
        "meta_mean_anomaly": 176.6574,
        "meta_ephemeris_type": 0,
        "meta_classification_type": "U",
        "meta_norad_cat_id": 37971,
        "meta_element_set_no": 999,
        "meta_rev_at_epoch": 60659,
        "meta_bstar": 0.0043286348,
        "meta_mean_motion_dot": 0.00016772,
        "meta_mean_motion_ddot": 0,
        "tle_line1": "1 37971U 93036BPW 25345.44481557  .00016772  00000+0  43286-2 0  9992",
        "tle_line2": "2 37971  73.9935  44.1730 0067411 183.4136 176.6574 14.48615122606595"
      },
      "geometry": {
        "type": "Point",
        "coordinates": [
          47.46257117067755,
          13.897704698876323
        ]
      }
    },
    {
      "type": "Feature",
      "properties": {
        "norad_id": 37975,
        "name": "COSMOS 2251 DEB",
        "group": "cosmos-2251-debris",
        "lat": 4.49946651281613,
        "lon": 144.4975838732303,
        "alt_km": 695.5478571143422,
        "timestamp": "2025-12-11T20:41:15.478862+00:00",
        "meta_object_name": "COSMOS 2251 DEB",
        "meta_object_id": "1993-036BQA",
        "meta_epoch": "2025-12-11T15:00:34.783776",
        "meta_mean_motion": 14.75964152,
        "meta_eccentricity": 0.0096009,
        "meta_inclination": 74.0032,
        "meta_ra_of_asc_node": 326.255,
        "meta_arg_of_pericenter": 315.8702,
        "meta_mean_anomaly": 43.4838,
        "meta_ephemeris_type": 0,
        "meta_classification_type": "U",
        "meta_norad_cat_id": 37975,
        "meta_element_set_no": 999,
        "meta_rev_at_epoch": 69729,
        "meta_bstar": 0.0059326203,
        "meta_mean_motion_dot": 0.00044255,
        "meta_mean_motion_ddot": 0,
        "tle_line1": "1 37975U 93036BQA 25345.62540259  .00044255  00000+0  59326-2 0  9990",
        "tle_line2": "2 37975  74.0032 326.2550 0096009 315.8702  43.4838 14.75964152697299"
      },
      "geometry": {
        "type": "Point",
        "coordinates": [
          144.4975838732303,
          4.49946651281613
        ]
      }
    }
  ]
}